ISS OBJECT YP           
1 69799U 98067YP  26192.37310148  .00023992  00000+0  42200-3 0  9992
2 69799  51.6300 180.3217 0009838 290.8514  69.1421 15.50295821  1390
STARLINK-37520          
1 69819U 26154A   26192.75002315 -.01679953  82118-3 -39907-2 0  9999
2 69819  53.1601 310.4689 0000871  57.6702   4.4825 15.96127564  2118
STARLINK-37553          
1 69820U 26154B   26192.75002315 -.01674853  81763-3 -39522-2 0  9993
2 69820  53.1600 310.4634 0001000  43.8167  20.8898 15.96248844  2113
STARLINK-37561          
1 69821U 26154C   26192.75002315 -.01682714  82585-3 -39426-2 0  9995
2 69821  53.1599 310.4581 0001122  53.7067  13.5661 15.96380056  2115
STARLINK-37521          
1 69822U 26154D   26192.75002315 -.01671957  81714-3 -38919-2 0  9992
2 69822  53.1600 310.4538 0001025  46.0983  23.2429 15.96498052  2111
STARLINK-37628          
1 69823U 26154E   26192.75002315 -.01679089  82470-3 -38811-2 0  9998
2 69823  53.1599 310.4486 0001066  46.9839  24.8160 15.96627321  2117
STARLINK-37695          
1 69824U 26154F   26192.75002315 -.01674123  82126-3 -38434-2 0  9992
2 69824  53.1599 310.4435 0000943  59.0379  15.2675 15.96750877  2117
STARLINK-37690          
1 69825U 26154G   26192.75002315 -.01673064  82136-3 -38152-2 0  9994
2 69825  53.1598 310.4392 0001004  47.2388  29.1657 15.96873235  2115
STARLINK-37710          
1 69826U 26154H   26192.75002315 -.01669218  81893-3 -37809-2 0  9998
2 69826  53.1598 310.4340 0001044  50.1633  28.7120 15.96994944  2110
STARLINK-38031          
1 69827U 26154J   26192.75002315 -.01665863  81689-3 -37493-2 0  9993
2 69827  53.1599 310.4291 0000945  57.5622  23.5666 15.97110696  2118
STARLINK-38001          
1 69828U 26154K   26192.75002315 -.01664096  81632-3 -37208-2 0  9993
2 69828  53.1598 310.4246 0001076  46.7197  36.6131 15.97228797  2115
STARLINK-37622          
1 69829U 26154L   26192.75002315 -.01662588  81597-3 -36932-2 0  9991
2 69829  53.1598 310.4200 0001106  49.9929  35.5763 15.97347028  2116
STARLINK-37621          
1 69830U 26154M   26192.75002315 -.01660210  81484-3 -36637-2 0  9990
2 69830  53.1597 310.4158 0001102  49.0115  38.5491 15.97465693  2113
STARLINK-37918          
1 69831U 26154N   26192.75002315 -.01671482  82619-3 -36631-2 0  9999
2 69831  53.1597 310.4118 0001097  49.3715  40.1372 15.97592568  2111
STARLINK-37887          
1 69832U 26154P   26192.75002315 -.01661335  81794-3 -36178-2 0  9995
2 69832  53.1597 310.4078 0000973  57.6706  33.7646 15.97705614  2111
STARLINK-37624          
1 69833U 26154Q   26192.75002315 -.01662252  81978-3 -35969-2 0  9996
2 69833  53.1596 310.4026 0001023  49.7098  44.2830 15.97820038  2117
STARLINK-37769          
1 69834U 26154R   26192.75002315 -.01661797  82036-3 -35732-2 0  9994
2 69834  53.1595 310.3976 0001086  50.7385  45.6430 15.97933798  2119
STARLINK-37247          
1 69835U 26154S   26192.75002315 -.01658261  81814-3 -35426-2 0  9990
2 69835  53.1595 310.3929 0000964  54.9788  43.6842 15.98049473  2210
STARLINK-37569          
1 69836U 26154T   26192.75002315 -.01639705  80223-3 -34821-2 0  9994
2 69836  53.1593 310.3891 0000933  59.0903  41.4746 15.98153857  2118
STARLINK-37587          
1 69837U 26154U   26192.75002315 -.01644807  80783-3 -34708-2 0  9999
2 69837  53.1594 310.3833 0001109  54.8980  48.3927 15.98268037  2080
STARLINK-37590          
1 69838U 26154V   26192.75002315 -.01626504  79224-3 -34114-2 0  9993
2 69838  53.1592 310.3789 0001054  55.5157  49.9177 15.98373729  1956
STARLINK-37589          
1 69839U 26154W   26192.75002315 -.01651612  81606-3 -34400-2 0  9997
2 69839  53.1592 310.3740 0001019  54.4347  53.3619 15.98502030  2088
STARLINK-37487          
1 69840U 26154X   26192.75002315 -.01246524  51753-3 -18865-2 0  9998
2 69840  53.1586 310.2326 0001097  55.1883 120.0415 16.03931309  2089
STARLINK-37433          
1 69841U 26154Y   26192.75002315 -.01249180  52072-3 -18681-2 0  9991
2 69841  53.1587 310.2229 0001011  53.6191 126.2727 16.04129650  2212
STARLINK-37588          
1 69842U 26154Z   26192.75002315 -.01275425  54227-3 -18814-2 0  9995
2 69842  53.1584 310.2124 0000982  53.6702 131.2230 16.04361032  2114
STARLINK-37579          
1 69843U 26154AA  26192.75002315 -.01305800  56825-3 -18881-2 0  9997
2 69843  53.1584 310.1981 0000903  49.3003 142.3123 16.04695069  2118
STARLINK-37584          
1 69844U 26154AB  26192.75002315 -.01316143  57770-3 -18825-2 0  9998
2 69844  53.1586 310.1895 0000916  49.6679 145.9947 16.04875115  2116
STARLINK-37606          
1 69845U 26154AC  26192.75002315 -.01325005  58640-3 -18688-2 0  9990
2 69845  53.1583 310.1793 0000904  49.5086 151.0493 16.05105257  2117
STARLINK-37603          
1 69846U 26154AD  26192.75002315 -.01345026  60484-3 -18626-2 0  9997
2 69846  53.1585 310.1667 0001135  56.8139 149.6527 16.05407339  2114
