OBJECT_NAME,OBJECT_ID,EPOCH,MEAN_MOTION,ECCENTRICITY,INCLINATION,RA_OF_ASC_NODE,ARG_OF_PERICENTER,MEAN_ANOMALY,EPHEMERIS_TYPE,CLASSIFICATION_TYPE,NORAD_CAT_ID,ELEMENT_SET_NO,REV_AT_EPOCH,BSTAR,MEAN_MOTION_DOT,MEAN_MOTION_DDOT
ISS OBJECT YP,1998-067YP,2026-07-11T08:57:15.967872,15.50295821,.00098384,51.6300,180.3217,290.8514,69.1421,0,U,69799,999,139,.42199633E-3,.23992E-3,0
STARLINK-37520,2026-154A,2026-07-11T18:00:02.000160,15.96127564,.00008712,53.1601,310.4689,57.6702,4.4825,0,U,69819,999,211,-.39907336E-2,-.1679953E-1,.8211816E-3
STARLINK-37553,2026-154B,2026-07-11T18:00:02.000160,15.96248844,.00010004,53.1600,310.4634,43.8167,20.8898,0,U,69820,999,211,-.39521841E-2,-.1674853E-1,.81762524E-3
STARLINK-37561,2026-154C,2026-07-11T18:00:02.000160,15.96380056,.00011227,53.1599,310.4581,53.7067,13.5661,0,U,69821,999,211,-.39425901E-2,-.1682714E-1,.82584601E-3
STARLINK-37521,2026-154D,2026-07-11T18:00:02.000160,15.96498052,.00010258,53.1600,310.4538,46.0983,23.2429,0,U,69822,999,211,-.38918983E-2,-.1671957E-1,.81714252E-3
STARLINK-37628,2026-154E,2026-07-11T18:00:02.000160,15.96627321,.00010669,53.1599,310.4486,46.9839,24.8160,0,U,69823,999,211,-.38811388E-2,-.1679089E-1,.82469814E-3
STARLINK-37695,2026-154F,2026-07-11T18:00:02.000160,15.96750877,.00009433,53.1599,310.4435,59.0379,15.2675,0,U,69824,999,211,-.38434269E-2,-.1674123E-1,.82126427E-3
STARLINK-37690,2026-154G,2026-07-11T18:00:02.000160,15.96873235,.00010049,53.1598,310.4392,47.2388,29.1657,0,U,69825,999,211,-.38152057E-2,-.1673064E-1,.82136474E-3
STARLINK-37710,2026-154H,2026-07-11T18:00:02.000160,15.96994944,.00010445,53.1598,310.4340,50.1633,28.7120,0,U,69826,999,211,-.3780902E-2,-.1669218E-1,.81893366E-3
STARLINK-38031,2026-154J,2026-07-11T18:00:02.000160,15.97110696,.00009457,53.1599,310.4291,57.5622,23.5666,0,U,69827,999,211,-.37492586E-2,-.1665863E-1,.81689245E-3
STARLINK-38001,2026-154K,2026-07-11T18:00:02.000160,15.97228797,.00010769,53.1598,310.4246,46.7197,36.6131,0,U,69828,999,211,-.37208479E-2,-.1664096E-1,.81631595E-3
STARLINK-37622,2026-154L,2026-07-11T18:00:02.000160,15.97347028,.00011065,53.1598,310.4200,49.9929,35.5763,0,U,69829,999,211,-.36932116E-2,-.1662588E-1,.81597084E-3
STARLINK-37621,2026-154M,2026-07-11T18:00:02.000160,15.97465693,.00011029,53.1597,310.4158,49.0115,38.5491,0,U,69830,999,211,-.36637238E-2,-.166021E-1,.81484313E-3
STARLINK-37918,2026-154N,2026-07-11T18:00:02.000160,15.97592568,.00010979,53.1597,310.4118,49.3715,40.1372,0,U,69831,999,211,-.36630979E-2,-.1671482E-1,.82619166E-3
STARLINK-37887,2026-154P,2026-07-11T18:00:02.000160,15.97705614,.00009734,53.1597,310.4078,57.6706,33.7646,0,U,69832,999,211,-.36178438E-2,-.1661335E-1,.81794012E-3
STARLINK-37624,2026-154Q,2026-07-11T18:00:02.000160,15.97820038,.00010234,53.1596,310.4026,49.7098,44.2830,0,U,69833,999,211,-.35968975E-2,-.1662252E-1,.81977537E-3
STARLINK-37769,2026-154R,2026-07-11T18:00:02.000160,15.97933798,.00010862,53.1595,310.3976,50.7385,45.6430,0,U,69834,999,211,-.35731762E-2,-.1661797E-1,.82035566E-3
STARLINK-37247,2026-154S,2026-07-11T18:00:02.000160,15.98049473,.00009643,53.1595,310.3929,54.9788,43.6842,0,U,69835,999,221,-.35426088E-2,-.1658261E-1,.81814493E-3
STARLINK-37569,2026-154T,2026-07-11T18:00:02.000160,15.98153857,.00009333,53.1593,310.3891,59.0903,41.4746,0,U,69836,999,211,-.34820923E-2,-.1639705E-1,.80223471E-3
STARLINK-37587,2026-154U,2026-07-11T18:00:02.000160,15.98268037,.00011097,53.1594,310.3833,54.8980,48.3927,0,U,69837,999,208,-.34707812E-2,-.1644807E-1,.80783333E-3
STARLINK-37590,2026-154V,2026-07-11T18:00:02.000160,15.98373729,.00010547,53.1592,310.3789,55.5157,49.9177,0,U,69838,999,195,-.34114165E-2,-.1626504E-1,.79223614E-3
STARLINK-37589,2026-154W,2026-07-11T18:00:02.000160,15.98502030,.0001019,53.1592,310.3740,54.4347,53.3619,0,U,69839,999,208,-.34399934E-2,-.1651612E-1,.81605848E-3
STARLINK-37487,2026-154X,2026-07-11T18:00:02.000160,16.03931309,.00010971,53.1586,310.2326,55.1883,120.0415,0,U,69840,999,208,-.18865152E-2,-.1246524E-1,.5175312E-3
STARLINK-37433,2026-154Y,2026-07-11T18:00:02.000160,16.04129650,.00010113,53.1587,310.2229,53.6191,126.2727,0,U,69841,999,221,-.18681185E-2,-.124918E-1,.52072244E-3
STARLINK-37588,2026-154Z,2026-07-11T18:00:02.000160,16.04361032,.00009823,53.1584,310.2124,53.6702,131.2230,0,U,69842,999,211,-.18813683E-2,-.1275425E-1,.54226942E-3
STARLINK-37579,2026-154AA,2026-07-11T18:00:02.000160,16.04695069,.00009036,53.1584,310.1981,49.3003,142.3123,0,U,69843,999,211,-.18880934E-2,-.13058E-1,.56825047E-3
STARLINK-37584,2026-154AB,2026-07-11T18:00:02.000160,16.04875115,.00009161,53.1586,310.1895,49.6679,145.9947,0,U,69844,999,211,-.18824729E-2,-.1316143E-1,.57770227E-3
STARLINK-37606,2026-154AC,2026-07-11T18:00:02.000160,16.05105257,.00009045,53.1583,310.1793,49.5086,151.0493,0,U,69845,999,211,-.18688439E-2,-.1325005E-1,.58639871E-3
STARLINK-37603,2026-154AD,2026-07-11T18:00:02.000160,16.05407339,.00011358,53.1585,310.1667,56.8139,149.6527,0,U,69846,999,211,-.18625617E-2,-.1345026E-1,.60483593E-3
